start=new Date('2022-11-09T00:00:00.000Z').valueOf();
sats=[{"OBJECT_ID":"2021-009W","APOAPSIS":"548.196","ARG_OF_PERICENTER":"94.6238","OBJECT_TYPE":"PAYLOAD","ELEMENT_SET_NO":"999","RCS_SIZE":"LARGE","OBJECT_NAME":"STARLINK-1967","EPOCH":"2022-11-08T13:10:57.108576","CLASSIFICATION_TYPE":"U","SITE":"AFETR","GP_ID":"217201666","FILE":"3649076","REV_AT_EPOCH":"9706","TLE_LINE1":"1 47568U 21009W   22312.54927209  .00004048  00000-0  29044-3 0  9998","INCLINATION":"53.0539","TLE_LINE2":"2 47568  53.0539 105.5833 0001468  94.6238 265.4919 15.06411043 97066","MEAN_ELEMENT_THEORY":"SGP4","EPHEMERIS_TYPE":"0","BSTAR":"0.00029044000000","PERIOD":"95.591","MEAN_MOTION_DDOT":"0.0000000000000","TIME_SYSTEM":"UTC","SEMIMAJOR_AXIS":"6925.315","MEAN_MOTION":"15.06411043","MEAN_MOTION_DOT":"0.00004048","PERIAPSIS":"546.163","NORAD_CAT_ID":"47568","RA_OF_ASC_NODE":"105.5833","LAUNCH_DATE":"2021-02-04","CENTER_NAME":"EARTH","REF_FRAME":"TEME","DECAY_DATE":null,"COUNTRY_CODE":"US","ECCENTRICITY":"0.00014680","MEAN_ANOMALY":"265.4919"},{"MEAN_MOTION":"15.80716684","MEAN_MOTION_DOT":"0.00202341","PERIAPSIS":"322.758","NORAD_CAT_ID":"47569","RA_OF_ASC_NODE":"315.2561","LAUNCH_DATE":"2021-02-04","MEAN_ELEMENT_THEORY":"SGP4","EPHEMERIS_TYPE":"0","BSTAR":"0.00101000000000","PERIOD":"91.098","MEAN_MOTION_DDOT":"0.0000000000000","TIME_SYSTEM":"UTC","SEMIMAJOR_AXIS":"6706.550","DECAY_DATE":null,"COUNTRY_CODE":"US","ECCENTRICITY":"0.00084350","MEAN_ANOMALY":"321.0469","CENTER_NAME":"EARTH","REF_FRAME":"TEME","RCS_SIZE":"LARGE","OBJECT_NAME":"STARLINK-1968","EPOCH":"2022-11-08T17:28:29.434080","CLASSIFICATION_TYPE":"U","SITE":"AFETR","OBJECT_ID":"2021-009X","APOAPSIS":"334.072","ARG_OF_PERICENTER":"39.1161","OBJECT_TYPE":"PAYLOAD","ELEMENT_SET_NO":"999","TLE_LINE2":"2 47569  53.0515 315.2561 0008435  39.1161 321.0469 15.80716684 99207","GP_ID":"217199938","FILE":"3649076","TLE_LINE1":"1 47569U 21009X   22312.72811845  .00202341  00000-0  10100-2 0  9995","REV_AT_EPOCH":"9920","INCLINATION":"53.0515"},{"TLE_LINE2":"2 47570  53.0557  65.3066 0001348 100.0721 260.0420 15.06418096 97632","TLE_LINE1":"1 47570U 21009Y   22312.60824120  .00004314  00000-0  30819-3 0  9994","INCLINATION":"53.0557","REV_AT_EPOCH":"9763","FILE":"3649076","GP_ID":"217200188","SITE":"AFETR","OBJECT_NAME":"STARLINK-1969","EPOCH":"2022-11-08T14:35:52.039680","CLASSIFICATION_TYPE":"U","RCS_SIZE":"LARGE","ELEMENT_SET_NO":"999","OBJECT_TYPE":"PAYLOAD","ARG_OF_PERICENTER":"100.0721","APOAPSIS":"548.092","OBJECT_ID":"2021-009Y","MEAN_ANOMALY":"260.0420","DECAY_DATE":null,"COUNTRY_CODE":"US","ECCENTRICITY":"0.00013480","REF_FRAME":"TEME","CENTER_NAME":"EARTH","LAUNCH_DATE":"2021-02-04","RA_OF_ASC_NODE":"65.3066","NORAD_CAT_ID":"47570","PERIAPSIS":"546.225","MEAN_MOTION_DOT":"0.00004314","MEAN_MOTION":"15.06418096","SEMIMAJOR_AXIS":"6925.293","TIME_SYSTEM":"UTC","MEAN_MOTION_DDOT":"0.0000000000000","PERIOD":"95.591","BSTAR":"0.00030819000000","EPHEMERIS_TYPE":"0","MEAN_ELEMENT_THEORY":"SGP4"},{"TLE_LINE2":"2 47571  53.0555  75.2702 0001373 106.6839 253.4301 15.06403754 97491","GP_ID":"217201433","FILE":"3649076","REV_AT_EPOCH":"9749","TLE_LINE1":"1 47571U 21009Z   22312.61837803  .00001640  00000-0  12896-3 0  9992","INCLINATION":"53.0555","RCS_SIZE":"LARGE","EPOCH":"2022-11-08T14:50:27.861792","OBJECT_NAME":"STARLINK-1970","CLASSIFICATION_TYPE":"U","SITE":"AFETR","OBJECT_ID":"2021-009Z","APOAPSIS":"548.153","ARG_OF_PERICENTER":"106.6839","ELEMENT_SET_NO":"999","OBJECT_TYPE":"PAYLOAD","DECAY_DATE":null,"ECCENTRICITY":"0.00013730","COUNTRY_CODE":"US","MEAN_ANOMALY":"253.4301","CENTER_NAME":"EARTH","REF_FRAME":"TEME","MEAN_MOTION":"15.06403754","MEAN_MOTION_DOT":"0.00001640","PERIAPSIS":"546.251","NORAD_CAT_ID":"47571","RA_OF_ASC_NODE":"75.2702","LAUNCH_DATE":"2021-02-04","MEAN_ELEMENT_THEORY":"SGP4","EPHEMERIS_TYPE":"0","BSTAR":"0.00012896000000","PERIOD":"95.592","MEAN_MOTION_DDOT":"0.0000000000000","SEMIMAJOR_AXIS":"6925.337","TIME_SYSTEM":"UTC"},{"SITE":"AFETR","OBJECT_NAME":"STARLINK-1971","EPOCH":"2022-11-08T09:37:20.211168","CLASSIFICATION_TYPE":"U","RCS_SIZE":"LARGE","ELEMENT_SET_NO":"999","OBJECT_TYPE":"PAYLOAD","APOAPSIS":"548.291","OBJECT_ID":"2021-009AA","ARG_OF_PERICENTER":"112.2728","TLE_LINE2":"2 47572  53.0549  76.2492 0001720 112.2728 247.8444 15.06437142 97468","GP_ID":"217170892","REV_AT_EPOCH":"9746","TLE_LINE1":"1 47572U 21009AA  22312.40092837  .00007607  00000-0  52849-3 0  9991","INCLINATION":"53.0549","FILE":"3648805","NORAD_CAT_ID":"47572","PERIAPSIS":"545.909","LAUNCH_DATE":"2021-02-04","RA_OF_ASC_NODE":"76.2492","MEAN_MOTION_DOT":"0.00007607","MEAN_MOTION":"15.06437142","MEAN_MOTION_DDOT":"0.0000000000000","TIME_SYSTEM":"UTC","SEMIMAJOR_AXIS":"6925.235","MEAN_ELEMENT_THEORY":"SGP4","PERIOD":"95.590","EPHEMERIS_TYPE":"0","BSTAR":"0.00052849000000","MEAN_ANOMALY":"247.8444","ECCENTRICITY":"0.00017200","DECAY_DATE":null,"COUNTRY_CODE":"US","CENTER_NAME":"EARTH","REF_FRAME":"TEME"},{"MEAN_MOTION":"15.06418599","MEAN_MOTION_DOT":"0.00007561","PERIAPSIS":"546.292","NORAD_CAT_ID":"47573","RA_OF_ASC_NODE":"75.1432","LAUNCH_DATE":"2021-02-04","MEAN_ELEMENT_THEORY":"SGP4","EPHEMERIS_TYPE":"0","BSTAR":"0.00052565000000","PERIOD":"95.591","MEAN_MOTION_DDOT":"0.0000000000000","TIME_SYSTEM":"UTC","SEMIMAJOR_AXIS":"6925.292","DECAY_DATE":null,"ECCENTRICITY":"0.00012490","COUNTRY_CODE":"US","MEAN_ANOMALY":"254.8894","CENTER_NAME":"EARTH","REF_FRAME":"TEME","RCS_SIZE":"LARGE","EPOCH":"2022-11-08T15:27:36.392544","OBJECT_NAME":"STARLINK-1975","CLASSIFICATION_TYPE":"U","SITE":"AFETR","OBJECT_ID":"2021-009AB","APOAPSIS":"548.022","ARG_OF_PERICENTER":"105.2233","OBJECT_TYPE":"PAYLOAD","ELEMENT_SET_NO":"999","TLE_LINE2":"2 47573  53.0536  75.1432 0001249 105.2233 254.8894 15.06418599 97491","GP_ID":"217200432","FILE":"3649076","TLE_LINE1":"1 47573U 21009AB  22312.64417121  .00007561  00000-0  52565-3 0  9999","INCLINATION":"53.0536","REV_AT_EPOCH":"9749"},{"INCLINATION":"53.0547","TLE_LINE1":"1 47574U 21009AC  22312.85887863  .00003059  00000-0  22412-3 0  9993","REV_AT_EPOCH":"9710","FILE":"3649076","GP_ID":"217200682","TLE_LINE2":"2 47574  53.0547 104.1860 0001430 101.9669 258.1481 15.06409763 97100","ELEMENT_SET_NO":"999","OBJECT_TYPE":"PAYLOAD","ARG_OF_PERICENTER":"101.9669","APOAPSIS":"548.174","OBJECT_ID":"2021-009AC","SITE":"AFETR","EPOCH":"2022-11-08T20:36:47.113632","OBJECT_NAME":"STARLINK-1976","CLASSIFICATION_TYPE":"U","RCS_SIZE":"LARGE","REF_FRAME":"TEME","CENTER_NAME":"EARTH","MEAN_ANOMALY":"258.1481","DECAY_DATE":null,"COUNTRY_CODE":"US","ECCENTRICITY":"0.00014300","TIME_SYSTEM":"UTC","SEMIMAJOR_AXIS":"6925.319","MEAN_MOTION_DDOT":"0.0000000000000","PERIOD":"95.592","EPHEMERIS_TYPE":"0","BSTAR":"0.00022412000000","MEAN_ELEMENT_THEORY":"SGP4","LAUNCH_DATE":"2021-02-04","RA_OF_ASC_NODE":"104.1860","NORAD_CAT_ID":"47574","PERIAPSIS":"546.193","MEAN_MOTION_DOT":"0.00003059","MEAN_MOTION":"15.06409763"},{"MEAN_ELEMENT_THEORY":"SGP4","BSTAR":"0.00020938000000","EPHEMERIS_TYPE":"0","PERIOD":"95.591","MEAN_MOTION_DDOT":"0.0000000000000","TIME_SYSTEM":"UTC","SEMIMAJOR_AXIS":"6925.314","MEAN_MOTION":"15.06411129","MEAN_MOTION_DOT":"0.00002840","PERIAPSIS":"546.278","NORAD_CAT_ID":"47575","RA_OF_ASC_NODE":"104.8356","LAUNCH_DATE":"2021-02-04","CENTER_NAME":"EARTH","REF_FRAME":"TEME","DECAY_DATE":null,"COUNTRY_CODE":"US","ECCENTRICITY":"0.00013020","MEAN_ANOMALY":"250.2362","OBJECT_ID":"2021-009AD","APOAPSIS":"548.081","ARG_OF_PERICENTER":"109.8768","ELEMENT_SET_NO":"999","OBJECT_TYPE":"PAYLOAD","RCS_SIZE":"LARGE","EPOCH":"2022-11-08T17:09:47.430720","OBJECT_NAME":"STARLINK-1977","CLASSIFICATION_TYPE":"U","SITE":"AFETR","GP_ID":"217200940","FILE":"3649076","TLE_LINE1":"1 47575U 21009AD  22312.71513230  .00002840  00000-0  20938-3 0  9991","REV_AT_EPOCH":"9708","INCLINATION":"53.0551","TLE_LINE2":"2 47575  53.0551 104.8356 0001302 109.8768 250.2362 15.06411129 97085"},{"MEAN_ANOMALY":"258.5576","DECAY_DATE":null,"COUNTRY_CODE":"US","ECCENTRICITY":"0.00011400","CENTER_NAME":"EARTH","REF_FRAME":"TEME","MEAN_MOTION_DOT":"0.00002738","MEAN_MOTION":"15.06415474","NORAD_CAT_ID":"47576","PERIAPSIS":"546.377","LAUNCH_DATE":"2021-02-04","RA_OF_ASC_NODE":"65.2886","MEAN_ELEMENT_THEORY":"SGP4","PERIOD":"95.591","BSTAR":"0.00020257000000","EPHEMERIS_TYPE":"0","MEAN_MOTION_DDOT":"0.0000000000000","TIME_SYSTEM":"UTC","SEMIMAJOR_AXIS":"6925.301","TLE_LINE2":"2 47576  53.0556  65.2886 0001140 101.5541 258.5576 15.06415474 97633","GP_ID":"217201667","TLE_LINE1":"1 47576U 21009AE  22312.61560376  .00002738  00000-0  20257-3 0  9994","INCLINATION":"53.0556","REV_AT_EPOCH":"9763","FILE":"3649076","RCS_SIZE":"LARGE","SITE":"AFETR","EPOCH":"2022-11-08T14:46:28.164864","OBJECT_NAME":"STARLINK-1978","CLASSIFICATION_TYPE":"U","APOAPSIS":"547.956","OBJECT_ID":"2021-009AE","ARG_OF_PERICENTER":"101.5541","ELEMENT_SET_NO":"999","OBJECT_TYPE":"PAYLOAD"},{"ELEMENT_SET_NO":"999","OBJECT_TYPE":"PAYLOAD","ARG_OF_PERICENTER":"102.2539","APOAPSIS":"547.995","OBJECT_ID":"2021-009AF","SITE":"AFETR","OBJECT_NAME":"STARLINK-1979","CLASSIFICATION_TYPE":"U","EPOCH":"2022-11-08T17:21:03.907296","RCS_SIZE":"LARGE","INCLINATION":"53.0547","TLE_LINE1":"1 47577U 21009AF  22312.72296189  .00008074  00000-0  55989-3 0  9994","REV_AT_EPOCH":"9744","FILE":"3649076","GP_ID":"217199939","TLE_LINE2":"2 47577  53.0547  79.8015 0001254 102.2539 257.8590 15.06428315 97445","TIME_SYSTEM":"UTC","SEMIMAJOR_AXIS":"6925.262","MEAN_MOTION_DDOT":"0.0000000000000","PERIOD":"95.590","BSTAR":"0.00055989000000","EPHEMERIS_TYPE":"0","MEAN_ELEMENT_THEORY":"SGP4","LAUNCH_DATE":"2021-02-04","RA_OF_ASC_NODE":"79.8015","NORAD_CAT_ID":"47577","PERIAPSIS":"546.258","MEAN_MOTION_DOT":"0.00008074","MEAN_MOTION":"15.06428315","REF_FRAME":"TEME","CENTER_NAME":"EARTH","MEAN_ANOMALY":"257.8590","ECCENTRICITY":"0.00012540","DECAY_DATE":null,"COUNTRY_CODE":"US"}];
